start=new Date('2022-02-04T00:00:00.000Z').valueOf();
sats=[{"OBJECT_TYPE":"PAYLOAD","ARG_OF_PERICENTER":"80.0229","MEAN_MOTION_DDOT":"0.0000000000000","NORAD_CAT_ID":"48146","RA_OF_ASC_NODE":"42.2177","PERIAPSIS":"546.177","MEAN_ANOMALY":"280.0927","SITE":"AFETR","FILE":"3291273","CENTER_NAME":"EARTH","RCS_SIZE":"LARGE","TLE_LINE2":"2 48146  53.0557  42.2177 0001479  80.0229 280.0927 15.06403901 47115","DECAY_DATE":null,"LAUNCH_DATE":"2021-04-07","INCLINATION":"53.0557","REV_AT_EPOCH":"4711","ECCENTRICITY":"0.00014790","OBJECT_ID":"2021-027BG","TIME_SYSTEM":"UTC","MEAN_ELEMENT_THEORY":"SGP4","SEMIMAJOR_AXIS":"6925.337","COUNTRY_CODE":"US","MEAN_MOTION_DOT":"0.00000862","ELEMENT_SET_NO":"999","APOAPSIS":"548.226","TLE_LINE1":"1 48146U 21027BG  22034.84967996  .00000862  00000-0  76742-4 0  9990","EPOCH":"2022-02-03T20:23:32.348544","MEAN_MOTION":"15.06403901","CLASSIFICATION_TYPE":"U","GP_ID":"195259164","PERIOD":"95.592","BSTAR":"0.00007674200000","REF_FRAME":"TEME","OBJECT_NAME":"STARLINK-2489","EPHEMERIS_TYPE":"0"},{"OBJECT_ID":"2021-027BH","ECCENTRICITY":"0.00016850","REV_AT_EPOCH":"4659","SEMIMAJOR_AXIS":"6925.297","MEAN_ELEMENT_THEORY":"SGP4","TIME_SYSTEM":"UTC","COUNTRY_CODE":"US","ELEMENT_SET_NO":"999","MEAN_MOTION_DOT":"0.00005320","EPOCH":"2022-02-03T12:22:31.292544","MEAN_MOTION":"15.06416709","TLE_LINE1":"1 48147U 21027BH  22034.51563996  .00005320  00000-0  37564-3 0  9999","APOAPSIS":"548.329","CLASSIFICATION_TYPE":"U","GP_ID":"195205560","REF_FRAME":"TEME","BSTAR":"0.00037564000000","PERIOD":"95.591","OBJECT_NAME":"STARLINK-2490","EPHEMERIS_TYPE":"0","MEAN_MOTION_DDOT":"0.0000000000000","OBJECT_TYPE":"PAYLOAD","NORAD_CAT_ID":"48147","ARG_OF_PERICENTER":"65.1728","PERIAPSIS":"545.995","RA_OF_ASC_NODE":"48.7057","MEAN_ANOMALY":"294.9437","FILE":"3290923","SITE":"AFETR","CENTER_NAME":"EARTH","RCS_SIZE":"LARGE","TLE_LINE2":"2 48147  53.0575  48.7057 0001685  65.1728 294.9437 15.06416709 46592","DECAY_DATE":null,"LAUNCH_DATE":"2021-04-07","INCLINATION":"53.0575"},{"REF_FRAME":"TEME","BSTAR":"0.00001986700000","PERIOD":"95.592","GP_ID":"195260163","CLASSIFICATION_TYPE":"U","EPHEMERIS_TYPE":"0","OBJECT_NAME":"STARLINK-2491","SEMIMAJOR_AXIS":"6925.362","TIME_SYSTEM":"UTC","MEAN_ELEMENT_THEORY":"SGP4","ECCENTRICITY":"0.00016300","OBJECT_ID":"2021-027BJ","REV_AT_EPOCH":"4708","EPOCH":"2022-02-03T18:00:14.547168","MEAN_MOTION":"15.06395468","TLE_LINE1":"1 48148U 21027BJ  22034.75016837  .00000014  00000-0  19867-4 0  9995","APOAPSIS":"548.356","COUNTRY_CODE":"US","MEAN_MOTION_DOT":"0.00000014","ELEMENT_SET_NO":"999","TLE_LINE2":"2 48148  53.0560  42.6746 0001630  67.5513 292.5649 15.06395468 47085","RCS_SIZE":"LARGE","CENTER_NAME":"EARTH","INCLINATION":"53.0560","LAUNCH_DATE":"2021-04-07","DECAY_DATE":null,"PERIAPSIS":"546.099","RA_OF_ASC_NODE":"42.6746","MEAN_MOTION_DDOT":"0.0000000000000","OBJECT_TYPE":"PAYLOAD","NORAD_CAT_ID":"48148","ARG_OF_PERICENTER":"67.5513","FILE":"3291273","SITE":"AFETR","MEAN_ANOMALY":"292.5649"},{"COUNTRY_CODE":"US","ELEMENT_SET_NO":"999","MEAN_MOTION_DOT":"0.00003283","APOAPSIS":"548.391","TLE_LINE1":"1 48149U 21027BK  22034.69670945  .00003283  00000-0  23915-3 0  9994","MEAN_MOTION":"15.06406775","EPOCH":"2022-02-03T16:43:15.696480","REV_AT_EPOCH":"4736","OBJECT_ID":"2021-027BK","ECCENTRICITY":"0.00017300","MEAN_ELEMENT_THEORY":"SGP4","TIME_SYSTEM":"UTC","SEMIMAJOR_AXIS":"6925.328","OBJECT_NAME":"STARLINK-2492","EPHEMERIS_TYPE":"0","GP_ID":"195260416","CLASSIFICATION_TYPE":"U","PERIOD":"95.592","BSTAR":"0.00023915000000","REF_FRAME":"TEME","MEAN_ANOMALY":"281.9901","SITE":"AFETR","FILE":"3291273","OBJECT_TYPE":"PAYLOAD","NORAD_CAT_ID":"48149","MEAN_MOTION_DDOT":"0.0000000000000","ARG_OF_PERICENTER":"78.1282","RA_OF_ASC_NODE":"22.8943","PERIAPSIS":"545.995","LAUNCH_DATE":"2021-04-07","DECAY_DATE":null,"INCLINATION":"53.0550","RCS_SIZE":"MEDIUM","CENTER_NAME":"EARTH","TLE_LINE2":"2 48149  53.0550  22.8943 0001730  78.1282 281.9901 15.06406775 47364"},{"OBJECT_TYPE":"PAYLOAD","ARG_OF_PERICENTER":"91.2642","MEAN_MOTION_DDOT":"0.0000000000000","NORAD_CAT_ID":"48150","PERIAPSIS":"546.245","RA_OF_ASC_NODE":"22.2984","MEAN_ANOMALY":"268.8507","SITE":"AFETR","FILE":"3291273","CENTER_NAME":"EARTH","RCS_SIZE":"LARGE","TLE_LINE2":"2 48150  53.0566  22.2984 0001397  91.2642 268.8507 15.06400409 47394","DECAY_DATE":null,"LAUNCH_DATE":"2021-04-07","INCLINATION":"53.0566","REV_AT_EPOCH":"4739","ECCENTRICITY":"0.00013970","OBJECT_ID":"2021-027BL","TIME_SYSTEM":"UTC","MEAN_ELEMENT_THEORY":"SGP4","SEMIMAJOR_AXIS":"6925.347","COUNTRY_CODE":"US","ELEMENT_SET_NO":"999","MEAN_MOTION_DOT":"0.00000824","APOAPSIS":"548.180","MEAN_MOTION":"15.06400409","EPOCH":"2022-02-03T19:59:39.008832","TLE_LINE1":"1 48150U 21027BL  22034.83309038  .00000824  00000-0  74201-4 0  9997","GP_ID":"195259664","CLASSIFICATION_TYPE":"U","BSTAR":"0.00007420100000","PERIOD":"95.592","REF_FRAME":"TEME","OBJECT_NAME":"STARLINK-2493","EPHEMERIS_TYPE":"0"},{"TLE_LINE2":"2 48151  53.0570  22.2809 0001630  64.6083 295.5074 15.06408760 47393","CENTER_NAME":"EARTH","RCS_SIZE":"LARGE","INCLINATION":"53.0570","LAUNCH_DATE":"2021-04-07","DECAY_DATE":null,"PERIAPSIS":"546.058","RA_OF_ASC_NODE":"22.2809","NORAD_CAT_ID":"48151","OBJECT_TYPE":"PAYLOAD","MEAN_MOTION_DDOT":"0.0000000000000","ARG_OF_PERICENTER":"64.6083","FILE":"3291273","SITE":"AFETR","MEAN_ANOMALY":"295.5074","REF_FRAME":"TEME","BSTAR":"0.00009557200000","PERIOD":"95.592","CLASSIFICATION_TYPE":"U","GP_ID":"195259914","EPHEMERIS_TYPE":"0","OBJECT_NAME":"STARLINK-2503","SEMIMAJOR_AXIS":"6925.322","TIME_SYSTEM":"UTC","MEAN_ELEMENT_THEORY":"SGP4","OBJECT_ID":"2021-027BM","ECCENTRICITY":"0.00016300","REV_AT_EPOCH":"4739","MEAN_MOTION":"15.06408760","EPOCH":"2022-02-03T20:04:57.662400","TLE_LINE1":"1 48151U 21027BM  22034.83677850  .00001143  00000-0  95572-4 0  9997","APOAPSIS":"548.316","COUNTRY_CODE":"US","ELEMENT_SET_NO":"999","MEAN_MOTION_DOT":"0.00001143"},{"ECCENTRICITY":"0.00017190","OBJECT_ID":"2021-036A","REV_AT_EPOCH":"359","SEMIMAJOR_AXIS":"6925.277","MEAN_ELEMENT_THEORY":"SGP4","TIME_SYSTEM":"UTC","MEAN_MOTION_DOT":"-0.00031670","COUNTRY_CODE":"US","ELEMENT_SET_NO":"999","EPOCH":"2022-02-03T22:00:01.999584","MEAN_MOTION":"15.06423242","TLE_LINE1":"1 48276U 21036A   22034.91668981 -.00031670  00000-0 -21153-2 0  9991","APOAPSIS":"548.333","CLASSIFICATION_TYPE":"U","GP_ID":"195259928","REF_FRAME":"TEME","BSTAR":"-0.00211530000000","PERIOD":"95.591","OBJECT_NAME":"STARLINK-2567","EPHEMERIS_TYPE":"0","OBJECT_TYPE":"PAYLOAD","ARG_OF_PERICENTER":"67.3150","MEAN_MOTION_DDOT":"0.0000000000000","NORAD_CAT_ID":"48276","PERIAPSIS":"545.952","RA_OF_ASC_NODE":"276.9129","MEAN_ANOMALY":"143.8666","FILE":"3291273","SITE":"AFETR","RCS_SIZE":"LARGE","CENTER_NAME":"EARTH","TLE_LINE2":"2 48276  53.0544 276.9129 0001719  67.3150 143.8666 15.06423242  3596","LAUNCH_DATE":"2021-04-29","DECAY_DATE":null,"INCLINATION":"53.0544"},{"MEAN_ANOMALY":"132.4599","SITE":"AFETR","FILE":"3291141","OBJECT_TYPE":"PAYLOAD","NORAD_CAT_ID":"48277","MEAN_MOTION_DDOT":"0.0000000000000","ARG_OF_PERICENTER":"71.1682","RA_OF_ASC_NODE":"241.8977","PERIAPSIS":"545.604","LAUNCH_DATE":"2021-04-29","DECAY_DATE":null,"INCLINATION":"53.0527","CENTER_NAME":"EARTH","RCS_SIZE":"LARGE","TLE_LINE2":"2 48277  53.0527 241.8977 0002419  71.1682 132.4599 15.06378725 44589","COUNTRY_CODE":"US","MEAN_MOTION_DOT":"0.00012160","ELEMENT_SET_NO":"999","APOAPSIS":"548.954","TLE_LINE1":"1 48277U 21036B   22034.91668981  .00012160  00000-0  83430-3 0  9990","EPOCH":"2022-02-03T22:00:01.999584","MEAN_MOTION":"15.06378725","REV_AT_EPOCH":"4458","OBJECT_ID":"2021-036B","ECCENTRICITY":"0.00024190","TIME_SYSTEM":"UTC","MEAN_ELEMENT_THEORY":"SGP4","SEMIMAJOR_AXIS":"6925.414","OBJECT_NAME":"STARLINK-2569","EPHEMERIS_TYPE":"0","GP_ID":"195210685","CLASSIFICATION_TYPE":"U","PERIOD":"95.593","BSTAR":"0.00083430000000","REF_FRAME":"TEME"},{"RCS_SIZE":"LARGE","CENTER_NAME":"EARTH","TLE_LINE2":"2 48278  53.0534 257.0367 0001491  47.3719 313.7559 15.06396383  3591","DECAY_DATE":null,"LAUNCH_DATE":"2021-04-29","INCLINATION":"53.0534","MEAN_MOTION_DDOT":"0.0000000000000","OBJECT_TYPE":"PAYLOAD","ARG_OF_PERICENTER":"47.3719","NORAD_CAT_ID":"48278","RA_OF_ASC_NODE":"257.0367","PERIAPSIS":"546.192","MEAN_ANOMALY":"313.7559","FILE":"3291273","SITE":"AFETR","GP_ID":"195260930","CLASSIFICATION_TYPE":"U","REF_FRAME":"TEME","PERIOD":"95.592","BSTAR":"-0.00039502000000","OBJECT_NAME":"STARLINK-2543","EPHEMERIS_TYPE":"0","OBJECT_ID":"2021-036C","ECCENTRICITY":"0.00014910","REV_AT_EPOCH":"359","SEMIMAJOR_AXIS":"6925.360","MEAN_ELEMENT_THEORY":"SGP4","TIME_SYSTEM":"UTC","ELEMENT_SET_NO":"999","COUNTRY_CODE":"US","MEAN_MOTION_DOT":"-0.00006160","TLE_LINE1":"1 48278U 21036C   22034.91668981 -.00006160  00000-0 -39502-3 0  9997","MEAN_MOTION":"15.06396383","EPOCH":"2022-02-03T22:00:01.999584","APOAPSIS":"548.257"},{"EPHEMERIS_TYPE":"0","OBJECT_NAME":"STARLINK-2580","REF_FRAME":"TEME","BSTAR":"-0.00048839000000","PERIOD":"95.593","CLASSIFICATION_TYPE":"U","GP_ID":"195259179","EPOCH":"2022-02-03T22:00:01.999584","MEAN_MOTION":"15.06389693","TLE_LINE1":"1 48279U 21036D   22034.91668981 -.00007547  00000-0 -48839-3 0  9991","APOAPSIS":"548.601","ELEMENT_SET_NO":"999","COUNTRY_CODE":"US","MEAN_MOTION_DOT":"-0.00007547","SEMIMAJOR_AXIS":"6925.380","MEAN_ELEMENT_THEORY":"SGP4","TIME_SYSTEM":"UTC","ECCENTRICITY":"0.00019580","OBJECT_ID":"2021-036D","REV_AT_EPOCH":"360","INCLINATION":"53.0546","DECAY_DATE":null,"LAUNCH_DATE":"2021-04-29","TLE_LINE2":"2 48279  53.0546 256.9171 0001958  61.1367 340.0806 15.06389693  3603","CENTER_NAME":"EARTH","RCS_SIZE":"LARGE","FILE":"3291273","SITE":"AFETR","MEAN_ANOMALY":"340.0806","PERIAPSIS":"545.889","RA_OF_ASC_NODE":"256.9171","OBJECT_TYPE":"PAYLOAD","MEAN_MOTION_DDOT":"0.0000000000000","ARG_OF_PERICENTER":"61.1367","NORAD_CAT_ID":"48279"}];
